IRIDIUM 64 [+]          
1 25287U 98021C   17221.04109562 -.00000030  00000-0 -17818-4 0  9998
2 25287  86.3974 201.8542 0002373  81.8808 278.2657 14.34214464 12309
IRIDIUM 65 [+]          
1 25288U 98021D   17221.04742341 -.00000040  00000-0 -21216-4 0  9995
2 25288  86.3972 201.7541 0002232  88.4159 271.7292 14.34214887 12315
IRIDIUM 66 [+]          
1 25289U 98021E   17221.05377942 -.00000038  00000-0 -20717-4 0  9990
2 25289  86.3972 201.6544 0002156  86.1614 273.9829 14.34214399 12604
IRIDIUM 67 [+]          
1 25290U 98021F   17221.06012383  .00000005  00000-0 -54128-5 0  9995
2 25290  86.3971 201.7888 0002287  88.1504 271.9954 14.34214570 12318
IRIDIUM 68 [+]          
1 25291U 98021G   17221.06646417 -.00000033  00000-0 -18915-4 0  9992
2 25291  86.3975 201.9058 0002272  84.7666 275.3789 14.34214378 12252
IRIDIUM 69 [-]          
1 25319U 98026A   17221.11066132  .00000116  00000-0  31483-4 0  9999
2 25319  86.3979 223.4430 0004115  95.4160 264.7508 14.38681721 10406
IRIDIUM 71 [-]          
1 25320U 98026B   17221.08569546  .00000059  00000-0  12726-4 0  9999
2 25320  86.3965 219.3192 0003312 128.3751 231.7746 14.39094935 10822
IRIDIUM 70 [+]          
1 25342U 98032A   17221.10060911  .00000004  00000-0 -54694-5 0  9997
2 25342  86.3977 202.1358 0002238  90.6120 314.8997 14.34214557  6386
IRIDIUM 72 [+]          
1 25343U 98032B   17221.07916267 -.00000038  00000-0 -20660-4 0  9991
2 25343  86.3974 201.7534 0002201  85.7963 274.3485 14.34214009  6413
IRIDIUM 73 [-]          
1 25344U 98032C   17221.03940353  .00000103  00000-0  21756-4 0  9999
2 25344  86.4461 180.6180 0001766  95.8559 264.2846 14.49049969 14905
IRIDIUM 75 [+]          
1 25346U 98032E   17221.08549554 -.00000029  00000-0 -17492-4 0  9995
2 25346  86.3976 202.0047 0002209  85.0732 275.0716 14.34214377  6958
IRIDIUM 3 [+]           
1 25431U 98048A   17221.14782479 -.00000051  00000-0 -25152-4 0  9996
2 25431  86.3945 233.5556 0002165  91.4835 311.0494 14.34217635992935
IRIDIUM 76 [+]          
1 25432U 98048B   17221.15866516  .00000017  00000-0 -93305-6 0  9991
2 25432  86.3942 233.3037 0001946  86.9441 273.1978 14.34215076993194
IRIDIUM 82 [-]          
1 25467U 98051A   17221.21992827  .00001091  00000-0  81195-4 0  9999
2 25467  86.4030 356.3190 0182318 201.4316 157.9211 14.89310813994741
IRIDIUM 81 [+]          
1 25468U 98051B   17221.17648242  .00000073  00000-0  17443-4 0  9998
2 25468  86.4255 359.6431 0001927  85.2590 274.8828 14.38611443990446
IRIDIUM 80 [+]          
1 25469U 98051C   17221.00718628  .00000070  00000-0  17767-4 0  9993
2 25469  86.3985   0.0027 0002921  94.5208  34.2522 14.34212385990377
IRIDIUM 77 [+]          
1 25471U 98051E   17221.19331031  .00000082  00000-0  20282-4 0  9994
2 25471  86.4244 359.4801 0001960 102.1783 312.1954 14.38607147995411
IRIDIUM 2 [-]           
1 25527U 98066A   17220.97414385  .00000926  00000-0  45416-4 0  9994
2 25527  85.5315   1.0847 0006897 252.0145 108.0343 15.16638019 26365
IRIDIUM 86 [+]          
1 25528U 98066B   17221.27681285  .00000144  00000-0  44448-4 0  9990
2 25528  86.3985 327.5995 0002235  99.4874 260.6574 14.34220688986737
IRIDIUM 84 [+]          
1 25530U 98066D   17221.23876084  .00000146  00000-0  44930-4 0  9990
2 25530  86.3986 327.7812 0002178  94.6391 265.5054 14.34218169984532
IRIDIUM 83 [+]          
1 25531U 98066E   17221.27046509  .00000150  00000-0  46650-4 0  9992
2 25531  86.3989 327.8955 0002242  93.4816 266.6636 14.34215528981672
IRIDIUM 20 [+]          
1 25577U 98074A   17221.19035616 -.00000031  00000-0 -18001-4 0  9998
2 25577  86.3941 233.2108 0002214  88.1501 271.9949 14.34217803161428
IRIDIUM 11 [+]          
1 25578U 98074B   17221.14181968 -.00000031  00000-0 -18056-4 0  9996
2 25578  86.3939 233.4322 0002319  88.3246 315.8980 14.34217384984981
IRIDIUM 14 [+]          
1 25777U 99032A   17221.10451979 -.00000030  00000-0 -17943-4 0  9993
2 25777  86.3974 201.8271 0002173  88.9744 271.1700 14.34214909962182
IRIDIUM 21 [+]          
1 25778U 99032B   17221.07281429 -.00000035  00000-0 -19608-4 0  9996
2 25778  86.3974 201.8585 0002121  81.2925 278.8511 14.34214262955617
IRIDIUM 91 [+]          
1 27372U 02005A   17221.25585134  .00000087  00000-0  23957-4 0  9999
2 27372  86.3942 264.9761 0001871  99.6601 286.0166 14.34221756819189
IRIDIUM 90 [S]          
1 27373U 02005B   17221.24100629  .00000142  00000-0  36528-4 0  9991
2 27373  86.4499 327.8944 0002198  98.1983 261.9467 14.42952112818934
IRIDIUM 94 [+]          
1 27374U 02005C   17221.23427632 -.00000047  00000-0 -23946-4 0  9993
2 27374  86.3942 233.5250 0001564  95.2188 327.9256 14.34217331823529
IRIDIUM 95 [+]          
1 27375U 02005D   17221.14941506  .00000090  00000-0  25075-4 0  9996
2 27375  86.3938 265.0422 0001392  84.3971 275.7383 14.34221919818470
IRIDIUM 96 [+]          
1 27376U 02005E   17221.19721961  .00000163  00000-0  51068-4 0  9995
2 27376  86.3995 297.0718 0001710  64.6426 295.4947 14.34221001224374
IRIDIUM 97 [+]          
1 27450U 02031A   17221.23527729  .00000144  00000-0  44408-4 0  9997
2 27450  86.3967 296.7134 0002453  90.8810 269.2667 14.34222873797783
IRIDIUM 98 [+]          
1 27451U 02031B   17221.27687918  .00000080  00000-0  21544-4 0  9994
2 27451  86.3978 359.9844 0002433 104.6997 303.0023 14.34212223798898
